[{"OBJECT_NAME":"STARLINK-30890","OBJECT_ID":"2023-177M","EPOCH":"2025-10-09T12:30:05.621760","MEAN_MOTION":15.02535158,"ECCENTRICITY":0.0001123,"INCLINATION":43.0031,"RA_OF_ASC_NODE":93.2029,"ARG_OF_PERICENTER":244.3089,"MEAN_ANOMALY":115.7637,"EPHEMERIS_TYPE":0,"CLASSIFICATION_TYPE":"U","NORAD_CAT_ID":58362,"ELEMENT_SET_NO":999,"REV_AT_EPOCH":10542,"BSTAR":7.7103e-5,"MEAN_MOTION_DOT":8.38e-6,"MEAN_MOTION_DDOT":0},{"OBJECT_NAME":"STARLINK-30909","OBJECT_ID":"2023-177N","EPOCH":"2025-10-10T04:25:46.544736","MEAN_MOTION":15.02537684,"ECCENTRICITY":0.00015093,"INCLINATION":43.0049,"RA_OF_ASC_NODE":89.5844,"ARG_OF_PERICENTER":264.7539,"MEAN_ANOMALY":95.3131,"EPHEMERIS_TYPE":0,"CLASSIFICATION_TYPE":"U","NORAD_CAT_ID":58363,"ELEMENT_SET_NO":999,"REV_AT_EPOCH":10557,"BSTAR":7.0051824e-5,"MEAN_MOTION_DOT":7.43e-6,"MEAN_MOTION_DDOT":0},{"OBJECT_NAME":"STARLINK-30904","OBJECT_ID":"2023-177P","EPOCH":"2025-10-10T04:30:03.637440","MEAN_MOTION":15.0252504,"ECCENTRICITY":0.00012854,"INCLINATION":43.005,"RA_OF_ASC_NODE":87.8943,"ARG_OF_PERICENTER":261.4427,"MEAN_ANOMALY":98.627,"EPHEMERIS_TYPE":0,"CLASSIFICATION_TYPE":"U","NORAD_CAT_ID":58364,"ELEMENT_SET_NO":999,"REV_AT_EPOCH":10559,"BSTAR":0.00012033606,"MEAN_MOTION_DOT":1.422e-5,"MEAN_MOTION_DDOT":0},{"OBJECT_NAME":"STARLINK-30918","OBJECT_ID":"2023-177Q","EPOCH":"2025-10-09T20:14:21.259968","MEAN_MOTION":15.02532042,"ECCENTRICITY":0.00015981,"INCLINATION":43.0034,"RA_OF_ASC_NODE":91.3229,"ARG_OF_PERICENTER":272.2054,"MEAN_ANOMALY":87.8605,"EPHEMERIS_TYPE":0,"CLASSIFICATION_TYPE":"U","NORAD_CAT_ID":58365,"ELEMENT_SET_NO":999,"REV_AT_EPOCH":10552,"BSTAR":2.480875e-6,"MEAN_MOTION_DOT":-1.7e-6,"MEAN_MOTION_DDOT":0},{"OBJECT_NAME":"STARLINK-30892","OBJECT_ID":"2023-177R","EPOCH":"2025-10-09T18:43:25.431744","MEAN_MOTION":15.02530548,"ECCENTRICITY":0.00013562,"INCLINATION":43.0031,"RA_OF_ASC_NODE":91.7098,"ARG_OF_PERICENTER":268.4827,"MEAN_ANOMALY":91.586,"EPHEMERIS_TYPE":0,"CLASSIFICATION_TYPE":"U","NORAD_CAT_ID":58366,"ELEMENT_SET_NO":999,"REV_AT_EPOCH":10552,"BSTAR":6.5023323e-5,"MEAN_MOTION_DOT":6.75e-6,"MEAN_MOTION_DDOT":0},{"OBJECT_NAME":"STARLINK-30891","OBJECT_ID":"2023-177S","EPOCH":"2025-10-09T21:45:17.450208","MEAN_MOTION":15.02548223,"ECCENTRICITY":0.0001142,"INCLINATION":43.0031,"RA_OF_ASC_NODE":90.9358,"ARG_OF_PERICENTER":257.9394,"MEAN_ANOMALY":102.132,"EPHEMERIS_TYPE":0,"CLASSIFICATION_TYPE":"U","NORAD_CAT_ID":58367,"ELEMENT_SET_NO":999,"REV_AT_EPOCH":10547,"BSTAR":0.00017215,"MEAN_MOTION_DOT":2.123e-5,"MEAN_MOTION_DDOT":0},{"OBJECT_NAME":"STARLINK-30889","OBJECT_ID":"2023-177T","EPOCH":"2025-10-09T21:48:29.448288","MEAN_MOTION":15.02530225,"ECCENTRICITY":0.0001212,"INCLINATION":43.0018,"RA_OF_ASC_NODE":90.9534,"ARG_OF_PERICENTER":266.0037,"MEAN_ANOMALY":94.0667,"EPHEMERIS_TYPE":0,"CLASSIFICATION_TYPE":"U","NORAD_CAT_ID":58368,"ELEMENT_SET_NO":999,"REV_AT_EPOCH":10553,"BSTAR":-3.1687e-5,"MEAN_MOTION_DOT":-6.31e-6,"MEAN_MOTION_DDOT":0},{"OBJECT_NAME":"STARLINK-30870","OBJECT_ID":"2023-177U","EPOCH":"2025-10-09T12:07:44.852736","MEAN_MOTION":15.02531371,"ECCENTRICITY":0.0001063,"INCLINATION":43.0033,"RA_OF_ASC_NODE":93.0862,"ARG_OF_PERICENTER":267.7909,"MEAN_ANOMALY":92.2812,"EPHEMERIS_TYPE":0,"CLASSIFICATION_TYPE":"U","NORAD_CAT_ID":58369,"ELEMENT_SET_NO":999,"REV_AT_EPOCH":10547,"BSTAR":-5.8014e-5,"MEAN_MOTION_DOT":-9.87e-6,"MEAN_MOTION_DDOT":0},{"OBJECT_NAME":"STARLINK-30888","OBJECT_ID":"2023-177V","EPOCH":"2025-10-09T21:00:42.325632","MEAN_MOTION":15.02548345,"ECCENTRICITY":0.000134,"INCLINATION":43.0023,"RA_OF_ASC_NODE":91.5499,"ARG_OF_PERICENTER":273.7951,"MEAN_ANOMALY":86.2738,"EPHEMERIS_TYPE":0,"CLASSIFICATION_TYPE":"U","NORAD_CAT_ID":58370,"ELEMENT_SET_NO":999,"REV_AT_EPOCH":10553,"BSTAR":6.7861e-5,"MEAN_MOTION_DOT":7.13e-6,"MEAN_MOTION_DDOT":0},{"OBJECT_NAME":"STARLINK-30859","OBJECT_ID":"2023-177W","EPOCH":"2025-10-10T04:44:57.170688","MEAN_MOTION":15.02533965,"ECCENTRICITY":0.00014523,"INCLINATION":43.0024,"RA_OF_ASC_NODE":89.6503,"ARG_OF_PERICENTER":262.826,"MEAN_ANOMALY":97.2417,"EPHEMERIS_TYPE":0,"CLASSIFICATION_TYPE":"U","NORAD_CAT_ID":58371,"ELEMENT_SET_NO":999,"REV_AT_EPOCH":10558,"BSTAR":-1.4978772e-5,"MEAN_MOTION_DOT":-4.06e-6,"MEAN_MOTION_DDOT":0},{"OBJECT_NAME":"STARLINK-30884","OBJECT_ID":"2023-177X","EPOCH":"2025-10-09T21:34:05.893248","MEAN_MOTION":15.02521939,"ECCENTRICITY":0.0001601,"INCLINATION":43.0033,"RA_OF_ASC_NODE":90.8764,"ARG_OF_PERICENTER":273.9001,"MEAN_ANOMALY":86.1658,"EPHEMERIS_TYPE":0,"CLASSIFICATION_TYPE":"U","NORAD_CAT_ID":58372,"ELEMENT_SET_NO":999,"REV_AT_EPOCH":10553,"BSTAR":-0.00015558,"MEAN_MOTION_DOT":-2.304e-5,"MEAN_MOTION_DDOT":0},{"OBJECT_NAME":"STARLINK-30852","OBJECT_ID":"2023-177Y","EPOCH":"2025-10-10T04:36:57.710304","MEAN_MOTION":15.02535103,"ECCENTRICITY":0.0001193,"INCLINATION":43.0041,"RA_OF_ASC_NODE":89.6096,"ARG_OF_PERICENTER":267.1225,"MEAN_ANOMALY":92.9481,"EPHEMERIS_TYPE":0,"CLASSIFICATION_TYPE":"U","NORAD_CAT_ID":58373,"ELEMENT_SET_NO":999,"REV_AT_EPOCH":10557,"BSTAR":-3.295512e-6,"MEAN_MOTION_DOT":-2.48e-6,"MEAN_MOTION_DDOT":0},{"OBJECT_NAME":"STARLINK-30911","OBJECT_ID":"2023-178A","EPOCH":"2025-10-09T13:12:50.042016","MEAN_MOTION":15.30162127,"ECCENTRICITY":0.0001458,"INCLINATION":53.1607,"RA_OF_ASC_NODE":342.9341,"ARG_OF_PERICENTER":93.3356,"MEAN_ANOMALY":266.7812,"EPHEMERIS_TYPE":0,"CLASSIFICATION_TYPE":"U","NORAD_CAT_ID":58374,"ELEMENT_SET_NO":999,"REV_AT_EPOCH":10674,"BSTAR":-0.00025588,"MEAN_MOTION_DOT":-7.921e-5,"MEAN_MOTION_DDOT":0},{"OBJECT_NAME":"STARLINK-30894","OBJECT_ID":"2023-178B","EPOCH":"2025-10-09T10:19:58.272384","MEAN_MOTION":15.30145807,"ECCENTRICITY":0.0001142,"INCLINATION":53.1606,"RA_OF_ASC_NODE":343.6111,"ARG_OF_PERICENTER":94.4999,"MEAN_ANOMALY":265.6132,"EPHEMERIS_TYPE":0,"CLASSIFICATION_TYPE":"U","NORAD_CAT_ID":58375,"ELEMENT_SET_NO":999,"REV_AT_EPOCH":10666,"BSTAR":-0.00020612,"MEAN_MOTION_DOT":-6.448e-5,"MEAN_MOTION_DDOT":0},{"OBJECT_NAME":"STARLINK-30910","OBJECT_ID":"2023-178C","EPOCH":"2025-10-09T10:24:28.927296","MEAN_MOTION":15.30185477,"ECCENTRICITY":0.000101,"INCLINATION":53.1599,"RA_OF_ASC_NODE":343.6332,"ARG_OF_PERICENTER":77.1019,"MEAN_ANOMALY":283.0094,"EPHEMERIS_TYPE":0,"CLASSIFICATION_TYPE":"U","NORAD_CAT_ID":58376,"ELEMENT_SET_NO":999,"REV_AT_EPOCH":10673,"BSTAR":-4.7996e-5,"MEAN_MOTION_DOT":-1.779e-5,"MEAN_MOTION_DDOT":0},{"OBJECT_NAME":"STARLINK-30914","OBJECT_ID":"2023-178D","EPOCH":"2025-10-09T11:41:48.897600","MEAN_MOTION":15.3018333,"ECCENTRICITY":0.0001353,"INCLINATION":53.1604,"RA_OF_ASC_NODE":343.2422,"ARG_OF_PERICENTER":108.4331,"MEAN_ANOMALY":251.6817,"EPHEMERIS_TYPE":0,"CLASSIFICATION_TYPE":"U","NORAD_CAT_ID":58377,"ELEMENT_SET_NO":999,"REV_AT_EPOCH":10674,"BSTAR":-2.8061e-5,"MEAN_MOTION_DOT":-1.19e-5,"MEAN_MOTION_DDOT":0},{"OBJECT_NAME":"STARLINK-30920","OBJECT_ID":"2023-178E","EPOCH":"2025-10-10T02:31:34.196160","MEAN_MOTION":15.30182855,"ECCENTRICITY":0.00011514,"INCLINATION":53.1602,"RA_OF_ASC_NODE":327.9579,"ARG_OF_PERICENTER":107.1082,"MEAN_ANOMALY":253.0045,"EPHEMERIS_TYPE":0,"CLASSIFICATION_TYPE":"U","NORAD_CAT_ID":58378,"ELEMENT_SET_NO":999,"REV_AT_EPOCH":10701,"BSTAR":7.8929229e-5,"MEAN_MOTION_DOT":1.978e-5,"MEAN_MOTION_DDOT":0},{"OBJECT_NAME":"STARLINK-30882","OBJECT_ID":"2023-178F","EPOCH":"2025-10-09T10:29:03.535008","MEAN_MOTION":15.30169802,"ECCENTRICITY":0.0001411,"INCLINATION":53.161,"RA_OF_ASC_NODE":343.648,"ARG_OF_PERICENTER":95.1675,"MEAN_ANOMALY":264.9487,"EPHEMERIS_TYPE":0,"CLASSIFICATION_TYPE":"U","NORAD_CAT_ID":58379,"ELEMENT_SET_NO":999,"REV_AT_EPOCH":10673,"BSTAR":-0.00012134,"MEAN_MOTION_DOT":-3.948e-5,"MEAN_MOTION_DDOT":0},{"OBJECT_NAME":"STARLINK-30915","OBJECT_ID":"2023-178G","EPOCH":"2025-10-10T04:29:33.652320","MEAN_MOTION":15.30190982,"ECCENTRICITY":0.00013554,"INCLINATION":53.1592,"RA_OF_ASC_NODE":250.4064,"ARG_OF_PERICENTER":79.2484,"MEAN_ANOMALY":280.867,"EPHEMERIS_TYPE":0,"CLASSIFICATION_TYPE":"U","NORAD_CAT_ID":58380,"ELEMENT_SET_NO":999,"REV_AT_EPOCH":10807,"BSTAR":6.8171651e-5,"MEAN_MOTION_DOT":1.66e-5,"MEAN_MOTION_DDOT":0},{"OBJECT_NAME":"STARLINK-30923","OBJECT_ID":"2023-178H","EPOCH":"2025-10-09T13:50:48.168096","MEAN_MOTION":15.30173863,"ECCENTRICITY":0.00014,"INCLINATION":53.1611,"RA_OF_ASC_NODE":343.0543,"ARG_OF_PERICENTER":89.7354,"MEAN_ANOMALY":270.3807,"EPHEMERIS_TYPE":0,"CLASSIFICATION_TYPE":"U","NORAD_CAT_ID":58381,"ELEMENT_SET_NO":999,"REV_AT_EPOCH":10668,"BSTAR":-0.00016742,"MEAN_MOTION_DOT":-5.31e-5,"MEAN_MOTION_DDOT":0},{"OBJECT_NAME":"STARLINK-30927","OBJECT_ID":"2023-178J","EPOCH":"2025-10-10T07:25:09.283872","MEAN_MOTION":15.30197239,"ECCENTRICITY":0.00012277,"INCLINATION":53.1599,"RA_OF_ASC_NODE":339.8462,"ARG_OF_PERICENTER":89.6549,"MEAN_ANOMALY":270.4592,"EPHEMERIS_TYPE":0,"CLASSIFICATION_TYPE":"U","NORAD_CAT_ID":58382,"ELEMENT_SET_NO":999,"REV_AT_EPOCH":10684,"BSTAR":0.00015243528,"MEAN_MOTION_DOT":4.158e-5,"MEAN_MOTION_DDOT":0},{"OBJECT_NAME":"STARLINK-30921","OBJECT_ID":"2023-178K","EPOCH":"2025-10-09T10:38:08.877120","MEAN_MOTION":15.30192543,"ECCENTRICITY":0.0001474,"INCLINATION":53.1605,"RA_OF_ASC_NODE":343.6876,"ARG_OF_PERICENTER":81.228,"MEAN_ANOMALY":278.8887,"EPHEMERIS_TYPE":0,"CLASSIFICATION_TYPE":"U","NORAD_CAT_ID":58383,"ELEMENT_SET_NO":999,"REV_AT_EPOCH":10671,"BSTAR":0.00017177,"MEAN_MOTION_DOT":4.73e-5,"MEAN_MOTION_DDOT":0},{"OBJECT_NAME":"STARLINK-30825","OBJECT_ID":"2023-178L","EPOCH":"2025-10-09T13:23:27.559104","MEAN_MOTION":15.30188801,"ECCENTRICITY":0.0001913,"INCLINATION":53.1615,"RA_OF_ASC_NODE":342.954,"ARG_OF_PERICENTER":64.5762,"MEAN_ANOMALY":295.5437,"EPHEMERIS_TYPE":0,"CLASSIFICATION_TYPE":"U","NORAD_CAT_ID":58384,"ELEMENT_SET_NO":999,"REV_AT_EPOCH":10675,"BSTAR":2.645e-5,"MEAN_MOTION_DOT":4.24e-6,"MEAN_MOTION_DDOT":0}]
